[{"OBJECT_NAME":"STARLINK-34576","OBJECT_ID":"2025-142F","EPOCH":"2026-03-09T21:21:00.309024","MEAN_MOTION":14.98370737,"ECCENTRICITY":0.00028434,"INCLINATION":70.0018,"RA_OF_ASC_NODE":313.8048,"ARG_OF_PERICENTER":267.5602,"MEAN_ANOMALY":92.5232,"EPHEMERIS_TYPE":0,"CLASSIFICATION_TYPE":"U","NORAD_CAT_ID":64701,"ELEMENT_SET_NO":999,"REV_AT_EPOCH":3950,"BSTAR":0.002065412,"MEAN_MOTION_DOT":0.00024664,"MEAN_MOTION_DDOT":0},{"OBJECT_NAME":"CZ-4B DEB","OBJECT_ID":"2006-046E","EPOCH":"2026-03-09T15:05:34.126944","MEAN_MOTION":15.05038248,"ECCENTRICITY":0.0035443,"INCLINATION":97.6504,"RA_OF_ASC_NODE":126.4986,"ARG_OF_PERICENTER":210.976,"MEAN_ANOMALY":148.9377,"EPHEMERIS_TYPE":0,"CLASSIFICATION_TYPE":"U","NORAD_CAT_ID":29509,"ELEMENT_SET_NO":999,"REV_AT_EPOCH":5351,"BSTAR":0.00027248,"MEAN_MOTION_DOT":3.86e-5,"MEAN_MOTION_DDOT":0}]
